[
    {
        "Altitude(m)": 607886.7024158585,
        "Argument of Periapsis(deg)": 0.0,
        "Eccentricity": 0.0,
        "Inclination(deg)": 60.0,
        "Latitude(deg)": 40.998473360784054,
        "Longitude(deg)": 4.972854892814145,
        "Mean Anomaly(deg)": 49.09090000000001,
        "RAAN(deg)": 75.0,
        "Satellite Name": "Test1 333",
        "Satellite Number": 333,
        "Semi-Major Axis(m)": 6980739.136638005,
        "Time(s)": 0
    },
    {
        "Altitude(m)": 607987.6169512792,
        "Argument of Periapsis(deg)": 0.00010418945913296404,
        "Eccentricity": 0.0,
        "Inclination(deg)": 60.0,
        "Latitude(deg)": 41.46356470362074,
        "Longitude(deg)": 5.477080940575455,
        "Mean Anomaly(deg)": 49.71100614546182,
        "RAAN(deg)": 74.99957995086027,
        "Satellite Name": "Test1 333",
        "Satellite Number": 333,
        "Semi-Major Axis(m)": 6980739.136638005,
        "Time(s)": 10
    }
]